IRIDIUM 136             
1 42962U 17061H   24185.94021832  .00000025  00000+0  17566-5 0  9993
2 42962  86.3980 323.3162 0002038 101.6977 258.4447 14.34215144352602
